YAOGAN-35 01A           
1 49390U 21101A   26068.78009532  .00012075  00000+0  47335-3 0  9995
2 49390  34.9903 183.8731 0005688 189.0601 171.0012 15.24952145241689
STARLINK-33853          
1 63684U 25085W   26068.29676051  .00020281  00000+0  74506-3 0  9992
2 63684  43.0070  32.7986 0002192 244.8429 115.2195 15.27554236 48810
