[{"OBJECT_NAME":"YAOGAN-35 01A","OBJECT_ID":"2021-101A","EPOCH":"2026-03-09T18:43:20.235648","MEAN_MOTION":15.24952145,"ECCENTRICITY":0.00056881,"INCLINATION":34.9903,"RA_OF_ASC_NODE":183.8731,"ARG_OF_PERICENTER":189.0601,"MEAN_ANOMALY":171.0012,"EPHEMERIS_TYPE":0,"CLASSIFICATION_TYPE":"U","NORAD_CAT_ID":49390,"ELEMENT_SET_NO":999,"REV_AT_EPOCH":24168,"BSTAR":0.00047335489,"MEAN_MOTION_DOT":0.00012075,"MEAN_MOTION_DDOT":0},{"OBJECT_NAME":"STARLINK-33853","OBJECT_ID":"2025-085W","EPOCH":"2026-03-09T07:07:20.108064","MEAN_MOTION":15.27554236,"ECCENTRICITY":0.00021924,"INCLINATION":43.007,"RA_OF_ASC_NODE":32.7986,"ARG_OF_PERICENTER":244.8429,"MEAN_ANOMALY":115.2195,"EPHEMERIS_TYPE":0,"CLASSIFICATION_TYPE":"U","NORAD_CAT_ID":63684,"ELEMENT_SET_NO":999,"REV_AT_EPOCH":4881,"BSTAR":0.00074505698,"MEAN_MOTION_DOT":0.00020281,"MEAN_MOTION_DDOT":0}]
